[
    {
        "Altitude(m)": 711390.4581984536,
        "Argument of Periapsis(deg)": 0.005695060593313534,
        "Eccentricity": 0.0,
        "Inclination(deg)": 45.0,
        "Latitude(deg)": -29.19515681627306,
        "Longitude(deg)": -129.13529673159948,
        "Mean Anomaly(deg)": 316.6757083237404,
        "RAAN(deg)": 4.994624029270898,
        "Satellite Name": "Constellation 1 41",
        "Satellite Number": 41,
        "Semi-Major Axis(m)": 7083131.272910544,
        "Time(s)": 95
    },
    {
        "Altitude(m)": 711376.6932137058,
        "Argument of Periapsis(deg)": 0.00575500859955894,
        "Eccentricity": 0.0,
        "Inclination(deg)": 45.0,
        "Latitude(deg)": -29.159361708454412,
        "Longitude(deg)": -129.08337152820863,
        "Mean Anomaly(deg)": 316.73640946399036,
        "RAAN(deg)": 4.994567440105328,
        "Satellite Name": "Constellation 1 41",
        "Satellite Number": 41,
        "Semi-Major Axis(m)": 7083131.272910544,
        "Time(s)": 96
    },
    {
        "Altitude(m)": 711362.9252954319,
        "Argument of Periapsis(deg)": 0.005814956605804345,
        "Eccentricity": 0.0,
        "Inclination(deg)": 45.0,
        "Latitude(deg)": -29.123542915569725,
        "Longitude(deg)": -129.03148487109252,
        "Mean Anomaly(deg)": 316.7971106042403,
        "RAAN(deg)": 4.9945108509397595,
        "Satellite Name": "Constellation 1 41",
        "Satellite Number": 41,
        "Semi-Major Axis(m)": 7083131.272910544,
        "Time(s)": 97
    },
    {
        "Altitude(m)": 711349.1544916924,
        "Argument of Periapsis(deg)": 0.00587490461204975,
        "Eccentricity": 0.0,
        "Inclination(deg)": 45.0,
        "Latitude(deg)": -29.08770048771913,
        "Longitude(deg)": -128.9796368700003,
        "Mean Anomaly(deg)": 316.85781174449016,
        "RAAN(deg)": 4.994454261774189,
        "Satellite Name": "Constellation 1 41",
        "Satellite Number": 41,
        "Semi-Major Axis(m)": 7083131.272910544,
        "Time(s)": 98
    },
    {
        "Altitude(m)": 711335.3808505523,
        "Argument of Periapsis(deg)": 0.005934852618295156,
        "Eccentricity": 0.0,
        "Inclination(deg)": 45.0,
        "Latitude(deg)": -29.051834474932317,
        "Longitude(deg)": -128.92782746654098,
        "Mean Anomaly(deg)": 316.91851288474004,
        "RAAN(deg)": 4.9943976726086206,
        "Satellite Name": "Constellation 1 41",
        "Satellite Number": 41,
        "Semi-Major Axis(m)": 7083131.272910544,
        "Time(s)": 99
    },
    {
        "Altitude(m)": 711321.6044200674,
        "Argument of Periapsis(deg)": 0.005994800624540561,
        "Eccentricity": 0.0,
        "Inclination(deg)": 45.0,
        "Latitude(deg)": -29.015944927168405,
        "Longitude(deg)": -128.87605660228166,
        "Mean Anomaly(deg)": 316.97921402499,
        "RAAN(deg)": 4.99434108344305,
        "Satellite Name": "Constellation 1 41",
        "Satellite Number": 41,
        "Semi-Major Axis(m)": 7083131.272910544,
        "Time(s)": 100
    },
    {
        "Altitude(m)": 711307.825248304,
        "Argument of Periapsis(deg)": 0.006054748630785968,
        "Eccentricity": 0.0,
        "Inclination(deg)": 45.0,
        "Latitude(deg)": -28.980031894316017,
        "Longitude(deg)": -128.82432421874805,
        "Mean Anomaly(deg)": 317.0399151652399,
        "RAAN(deg)": 4.994284494277481,
        "Satellite Name": "Constellation 1 41",
        "Satellite Number": 41,
        "Semi-Major Axis(m)": 7083131.272910544,
        "Time(s)": 101
    },
    {
        "Altitude(m)": 711294.0433833164,
        "Argument of Periapsis(deg)": 0.006114696637031373,
        "Eccentricity": 0.0,
        "Inclination(deg)": 45.0,
        "Latitude(deg)": -28.944095426193083,
        "Longitude(deg)": -128.77263025742468,
        "Mean Anomaly(deg)": 317.1006163054897,
        "RAAN(deg)": 4.994227905111912,
        "Satellite Name": "Constellation 1 41",
        "Satellite Number": 41,
        "Semi-Major Axis(m)": 7083131.272910544,
        "Time(s)": 102
    },
    {
        "Altitude(m)": 711280.2588731662,
        "Argument of Periapsis(deg)": 0.006174644643276778,
        "Eccentricity": 0.0,
        "Inclination(deg)": 45.0,
        "Latitude(deg)": -28.908135572547337,
        "Longitude(deg)": -128.720974659756,
        "Mean Anomaly(deg)": 317.1613174457396,
        "RAAN(deg)": 4.994171315946342,
        "Satellite Name": "Constellation 1 41",
        "Satellite Number": 41,
        "Semi-Major Axis(m)": 7083131.272910544,
        "Time(s)": 103
    },
    {
        "Altitude(m)": 711266.4717659174,
        "Argument of Periapsis(deg)": 0.006234592649522184,
        "Eccentricity": 0.0,
        "Inclination(deg)": 45.0,
        "Latitude(deg)": -28.872152383055653,
        "Longitude(deg)": -128.66935753524376,
        "Mean Anomaly(deg)": 317.22201858598953,
        "RAAN(deg)": 4.994114726780773,
        "Satellite Name": "Constellation 1 41",
        "Satellite Number": 41,
        "Semi-Major Axis(m)": 7083131.272910544,
        "Time(s)": 104
    },
    {
        "Altitude(m)": 711252.6821096244,
        "Argument of Periapsis(deg)": 0.00629454065576759,
        "Eccentricity": 0.0,
        "Inclination(deg)": 45.0,
        "Latitude(deg)": -28.83614590732539,
        "Longitude(deg)": -128.61777848905908,
        "Mean Anomaly(deg)": 317.28271972623946,
        "RAAN(deg)": 4.994058137615203,
        "Satellite Name": "Constellation 1 41",
        "Satellite Number": 41,
        "Semi-Major Axis(m)": 7083131.272910544,
        "Time(s)": 105
    },
    {
        "Altitude(m)": 711238.8899523492,
        "Argument of Periapsis(deg)": 0.006354488662012995,
        "Eccentricity": 0.0,
        "Inclination(deg)": 45.0,
        "Latitude(deg)": -28.80011619489292,
        "Longitude(deg)": -128.56623763062592,
        "Mean Anomaly(deg)": 317.34342086648934,
        "RAAN(deg)": 4.994001548449633,
        "Satellite Name": "Constellation 1 41",
        "Satellite Number": 41,
        "Semi-Major Axis(m)": 7083131.272910544,
        "Time(s)": 106
    },
    {
        "Altitude(m)": 711225.0953421416,
        "Argument of Periapsis(deg)": 0.006414436668258401,
        "Eccentricity": 0.0,
        "Inclination(deg)": 45.0,
        "Latitude(deg)": -28.764063295224602,
        "Longitude(deg)": -128.51473490123303,
        "Mean Anomaly(deg)": 317.4041220067392,
        "RAAN(deg)": 4.993944959284065,
        "Satellite Name": "Constellation 1 41",
        "Satellite Number": 41,
        "Semi-Major Axis(m)": 7083131.272910544,
        "Time(s)": 107
    },
    {
        "Altitude(m)": 711211.2983270636,
        "Argument of Periapsis(deg)": 0.0064743846745038075,
        "Eccentricity": 0.0,
        "Inclination(deg)": 45.0,
        "Latitude(deg)": -28.72798725771653,
        "Longitude(deg)": -128.46327024213173,
        "Mean Anomaly(deg)": 317.46482314698915,
        "RAAN(deg)": 4.993888370118494,
        "Satellite Name": "Constellation 1 41",
        "Satellite Number": 41,
        "Semi-Major Axis(m)": 7083131.272910544,
        "Time(s)": 108
    },
    {
        "Altitude(m)": 711197.4989551633,
        "Argument of Periapsis(deg)": 0.0065343326807492125,
        "Eccentricity": 0.0,
        "Inclination(deg)": 45.0,
        "Latitude(deg)": -28.69188813169481,
        "Longitude(deg)": -128.41184359453626,
        "Mean Anomaly(deg)": 317.5255242872391,
        "RAAN(deg)": 4.993831780952926,
        "Satellite Name": "Constellation 1 41",
        "Satellite Number": 41,
        "Semi-Major Axis(m)": 7083131.272910544,
        "Time(s)": 109
    },
    {
        "Altitude(m)": 711183.6972744968,
        "Argument of Periapsis(deg)": 0.0065942806869946176,
        "Eccentricity": 0.0,
        "Inclination(deg)": 45.0,
        "Latitude(deg)": -28.655765966415416,
        "Longitude(deg)": -128.36045489962467,
        "Mean Anomaly(deg)": 317.58622542748896,
        "RAAN(deg)": 4.993775191787355,
        "Satellite Name": "Constellation 1 41",
        "Satellite Number": 41,
        "Semi-Major Axis(m)": 7083131.272910544,
        "Time(s)": 110
    },
    {
        "Altitude(m)": 711169.8933331071,
        "Argument of Periapsis(deg)": 0.006654228693240024,
        "Eccentricity": 0.0,
        "Inclination(deg)": 45.0,
        "Latitude(deg)": -28.61962081106394,
        "Longitude(deg)": -128.30910426663604,
        "Mean Anomaly(deg)": 317.64692656773883,
        "RAAN(deg)": 4.993718602621787,
        "Satellite Name": "Constellation 1 41",
        "Satellite Number": 41,
        "Semi-Major Axis(m)": 7083131.272910544,
        "Time(s)": 111
    },
    {
        "Altitude(m)": 711156.0871790459,
        "Argument of Periapsis(deg)": 0.006714176699485429,
        "Eccentricity": 0.0,
        "Inclination(deg)": 45.0,
        "Latitude(deg)": -28.583452714756966,
        "Longitude(deg)": -128.25779130048298,
        "Mean Anomaly(deg)": 317.70762770798876,
        "RAAN(deg)": 4.993662013456217,
        "Satellite Name": "Constellation 1 41",
        "Satellite Number": 41,
        "Semi-Major Axis(m)": 7083131.272910544,
        "Time(s)": 112
    },
    {
        "Altitude(m)": 711142.2788603565,
        "Argument of Periapsis(deg)": 0.006774124705730835,
        "Eccentricity": 0.0,
        "Inclination(deg)": 45.0,
        "Latitude(deg)": -28.54726172654035,
        "Longitude(deg)": -128.20651611033477,
        "Mean Anomaly(deg)": 317.7683288482387,
        "RAAN(deg)": 4.993605424290647,
        "Satellite Name": "Constellation 1 41",
        "Satellite Number": 41,
        "Semi-Major Axis(m)": 7083131.272910544,
        "Time(s)": 113
    }
]